ONEWEB-0113             
1 48050U 21025J   22339.89078358  .00000287  00000+0  75091-3 0  9995
2 48050  87.9049 216.4225 0001519  87.3799 272.7504 13.13467045 84336
ONEWEB-0112             
1 48051U 21025K   22339.72572427  .00000313  00000+0  82271-3 0  9992
2 48051  87.9042 216.4163 0001485  79.0857 281.0439 13.13470903 84333
ONEWEB-0156             
1 48052U 21025L   22339.88865523  .00000300  00000+0  78616-3 0  9996
2 48052  87.9050 216.4051 0001493  77.1423 282.9872 13.13472398 84326
ONEWEB-0161             
1 48053U 21025M   22340.08966681 -.00000724  00000+0 -20172-2 0  9993
2 48053  87.9046 216.3472 0001731  74.1266 286.0054 13.13469702 84293
ONEWEB-0158             
1 48054U 21025N   22340.12990606  .00000162  00000+0  40813-3 0  9992
2 48054  87.9050 216.3644 0001467  95.3174 264.8123 13.13468727 84410
ONEWEB-0157             
1 48055U 21025P   22340.07700714 -.00000267  00000+0 -76567-3 0  9999
2 48055  87.9073 216.3291 0001619  67.7095 292.4205 13.13469088 84350
ONEWEB-0162             
1 48056U 21025Q   22339.88653974  .00000258  00000+0  67201-3 0  9995
2 48056  87.9046 216.3844 0001445  77.2590 282.8700 13.13471913 84294
ONEWEB-0155             
1 48057U 21025R   22339.67919055 -.00000146  00000+0 -43453-3 0  9999
2 48057  87.9129 216.4042 0001608  78.2573 281.8737 13.13467851 84409
ONEWEB-0149             
1 48058U 21025S   22339.62416643 -.00000195  00000+0 -56869-3 0  9999
2 48058  87.9046 216.4381 0001147  64.9934 295.1314 13.13468270 84208
ONEWEB-0148             
1 48059U 21025T   22339.89291667  .00000302  00000+0  79093-3 0  9998
2 48059  87.9049 216.3892 0001313  42.9633 317.1598 13.13469006 84369
ONEWEB-0160             
1 48060U 21025U   22340.36689652 -.00000059  00000+0 -19715-3 0  9995
2 48060  87.9046 216.2941 0001564 124.1132 236.0146 13.13468321 84375
ONEWEB-0163             
1 48061U 21025V   22339.89501737  .00000199  00000+0  50876-3 0  9995
2 48061  87.8982 216.4049 0001815  65.7629 294.3690 13.13466537 84430
ONEWEB-0159             
1 48062U 21025W   22339.73207353  .00000416  00000+0  11043-2 0  9990
2 48062  87.9052 216.4237 0001726  61.0798 299.0504 13.13474857 84335
ONEWEB-0164             
1 48063U 21025X   22340.09393550  .00000092  00000+0  21616-3 0  9995
2 48063  87.8958 216.3716 0001827  84.7051 275.4287 13.13471967 84376
ONEWEB-0167             
1 48064U 21025Y   22340.04843465  .00000280  00000+0  73091-3 0  9999
2 48064  87.9074 216.3364 0001663  65.4464 294.6838 13.13470570 84349
ONEWEB-0166             
1 48065U 21025Z   22339.68976532 -.00000334  00000+0 -94995-3 0  9998
2 48065  87.9043 216.4241 0001456  67.2319 292.8963 13.13470947 84370
ONEWEB-0151             
1 48066U 21025AA  22339.69187234 -.00000395  00000+0 -11159-2 0  9990
2 48066  87.9045 216.4238 0001782  84.3984 275.7348 13.13467946 84315
ONEWEB-0170             
1 48067U 21025AB  22340.07912029 -.00000275  00000+0 -78863-3 0  9996
2 48067  87.8983 216.3795 0002019 102.4570 257.6785 13.13469522 84327
ONEWEB-0168             
1 48068U 21025AC  22339.68341599 -.00000188  00000+0 -54970-3 0  9996
2 48068  87.9050 216.4566 0001539  72.4243 287.7054 13.13470999 84288
ONEWEB-0173             
1 48069U 21025AD  22340.13413058 -.00000006  00000+0 -49949-4 0  9999
2 48069  87.9052 216.3792 0002126  72.7223 287.4139 13.13465900 84585
ONEWEB-0171             
1 48070U 21025AE  22340.09182164 -.00000021  00000+0 -91723-4 0  9991
2 48070  87.9051 216.3464 0001507  70.2073 289.9219 13.13468160 84396
ONEWEB-0172             
1 48071U 21025AF  22339.61676432 -.00000251  00000+0 -72123-3 0  9991
2 48071  87.9008 216.4632 0001969  78.9750 281.1601 13.13471234 85224
ONEWEB-0174             
1 48072U 21025AG  22339.90348307  .00000011  00000+0 -35554-5 0  9993
2 48072  87.9039 216.3996 0001055  51.4389 308.6835 13.13464816 84581
ONEWEB-0175             
1 48073U 21025AH  22339.62629260 -.00000226  00000+0 -65406-3 0  9999
2 48073  87.9041 216.4354 0001947  89.9413 270.1939 13.13469470 84206
ONEWEB-0177             
1 48074U 21025AJ  22340.01984765 -.00000031  00000+0 -11992-3 0  9994
2 48074  87.8998 216.3819 0002037  61.9580 298.1755 13.13472496 84442
ONEWEB-0178             
1 48075U 21025AK  22339.88549884  .00000351  00000+0  92620-3 0  9997
2 48075  87.9047 216.3871 0001696  69.5643 290.5668 13.13467184 84471
ONEWEB-0108             
1 48076U 21025AL  22339.61780518 -.00000278  00000+0 -79695-3 0  9997
2 48076  87.9043 216.4382 0001293  80.4145 279.7130 13.13472241 84370
ONEWEB-0169             
1 48077U 21025AM  22339.72361701  .00000276  00000+0  72157-3 0  9991
2 48077  87.8977 216.4411 0001128  71.9254 288.1998 13.13473008 84279
ONEWEB-0176             
1 48210U 21031A   22339.81904091 -.00000018  00000+0 -82488-4 0  9997
2 48210  87.9082 186.0951 0001628  79.3403 280.7910 13.14499858 78929
ONEWEB-0184             
1 48211U 21031B   22340.02202152  .00000232  00000+0  59177-3 0  9996
2 48211  87.9087 186.0273 0002707  98.5098 261.6339 13.14504577 78922
ONEWEB-0179             
1 48212U 21031C   22340.06644056 -.00000168  00000+0 -48758-3 0  9997
2 48212  87.9087 186.0180 0001691  72.0294 288.1020 13.14502913 78974
ONEWEB-0180             
1 48213U 21031D   22340.02415661  .00000273  00000+0  70105-3 0  9998
2 48213  87.9088 186.0225 0001554  75.2114 284.9188 13.14504584 78852
ONEWEB-0218             
1 48214U 21031E   22339.66470008  .00000066  00000+0  14304-3 0  9992
2 48214  87.9086 186.1049 0002899  86.6253 273.5208 13.14500874 78966
ONEWEB-0209             
1 48215U 21031F   22340.03472986  .00000331  00000+0  85892-3 0  9998
2 48215  87.9089 186.0607 0001572  75.9285 284.2019 13.14504068 79017
ONEWEB-0198             
1 48216U 21031G   22339.86768694  .00000151  00000+0  37413-3 0  9998
2 48216  87.9089 186.1057 0002189  78.7150 281.4225 13.14500923 79109
ONEWEB-0189             
1 48217U 21031H   22340.03260308  .00000269  00000+0  69020-3 0  9998
2 48217  87.9084 186.0607 0002092  75.3209 284.8153 13.14500066 78863
ONEWEB-0196             
1 48218U 21031J   22340.01145131  .00000117  00000+0  28093-3 0  9990
2 48218  87.9091 186.0481 0001726  84.5203 275.6123 13.14505579 78859
ONEWEB-0183             
1 48219U 21031K   22339.83174530 -.00000224  00000+0 -63983-3 0  9992
2 48219  87.9090 186.1029 0001462  78.2304 281.8990 13.14500373 78934
ONEWEB-0185             
1 48220U 21031L   22340.01251676  .00000170  00000+0  42544-3 0  9991
2 48220  87.9089 186.0448 0001524  78.1011 282.0290 13.14500797 78881
ONEWEB-0187             
1 48221U 21031M   22339.83489715 -.00000229  00000+0 -65312-3 0  9992
2 48221  87.9090 186.1037 0001565  74.4595 285.6708 13.14504199 78872
ONEWEB-0192             
1 48222U 21031N   22340.03683346  .00000282  00000+0  72641-3 0  9993
2 48222  87.9090 186.0107 0001821  84.0878 276.0460 13.14501417 78820
ONEWEB-0219             
1 48223U 21031P   22340.01780812  .00000239  00000+0  61083-3 0  9998
2 48223  87.9086 186.0529 0001528  74.8925 285.2374 13.14502964 79025
ONEWEB-0202             
1 48224U 21031Q   22340.07278322 -.00000158  00000+0 -46091-3 0  9997
2 48224  87.9086 186.0587 0002781  78.7806 281.3636 13.14500133 79016
ONEWEB-0204             
1 48225U 21031R   22339.82857051 -.00000186  00000+0 -53516-3 0  9992
2 48225  87.9087 186.1326 0000986 103.9649 256.1590 13.14500747 78863
ONEWEB-0205             
1 48226U 21031S   22340.31171312  .00003726  00000+0  10013-1 0  9992
2 48226  87.9093 185.9902 0001928  75.4154 284.7189 13.14485463 78957
ONEWEB-0206             
1 48227U 21031T   22340.28421491 -.00000015  00000+0 -74875-4 0  9994
2 48227  87.9088 185.9823 0001426  71.6698 288.4586 13.14504808 78900
ONEWEB-0182             
1 48228U 21031U   22339.82116596 -.00000021  00000+0 -91455-4 0  9990
2 48228  87.9092 186.1478 0001546  73.0631 287.0668 13.14504639 79045
ONEWEB-0186             
1 48229U 21031V   22340.29055120 -.00000188  00000+0 -54128-3 0  9998
2 48229  87.9089 185.9673 0001732  78.2744 281.8580 13.14501300 79064
ONEWEB-0181             
1 48230U 21031W   22340.03895701  .00000229  00000+0  58422-3 0  9994
2 48230  87.9091 186.0854 0001711  83.5091 276.6233 13.14501718 78882
ONEWEB-0188             
1 48231U 21031X   22340.00300400 -.00000038  00000+0 -13727-3 0  9998
2 48231  87.9090 186.0941 0001576  77.1776 282.9529 13.14500656 78773
ONEWEB-0220             
1 48232U 21031Y   22340.04105364  .00000171  00000+0  42736-3 0  9993
2 48232  87.9095 186.0443 0001638  67.5989 292.5314 13.14500238 79040
ONEWEB-0165             
1 48233U 21031Z   22340.07066113 -.00000162  00000+0 -47037-3 0  9996
2 48233  87.9089 186.0619 0001754  75.4969 284.6356 13.14502849 79008
ONEWEB-0199             
1 48234U 21031AA  22339.82539382 -.00000076  00000+0 -23843-3 0  9994
2 48234  87.9090 186.0862 0001661  77.6511 282.4805 13.14503837 78872
ONEWEB-0203             
1 48235U 21031AB  22339.81481823  .00000101  00000+0  23854-3 0  9999
2 48235  87.9091 186.0840 0001833  97.5348 262.5990 13.14503914 78881
ONEWEB-0197             
1 48236U 21031AC  22340.03048533  .00000311  00000+0  80507-3 0  9994
2 48236  87.9088 186.0510 0001647  81.5852 278.5465 13.14500481 78822
ONEWEB-0194             
1 48237U 21031AD  22340.07489178 -.00000136  00000+0 -40138-3 0  9996
2 48237  87.9088 186.0319 0001630 101.9270 258.2043 13.14501525 79001
ONEWEB-0193             
1 48238U 21031AE  22340.01569157  .00000145  00000+0  35729-3 0  9995
2 48238  87.9089 186.0544 0001824  85.0767 275.0571 13.14501476 78941
ONEWEB-0191             
1 48239U 21031AF  22340.02627006  .00000412  00000+0  10779-2 0  9999
2 48239  87.9087 186.0338 0001642  90.1597 269.9721 13.14503868 78808
ONEWEB-0195             
1 48240U 21031AG  22339.85180664 -.00000094  00000+0 -28868-3 0  9991
2 48240  87.9090 186.0621 0002065  77.1591 282.9770 13.14499195 78769
